[{"OBJECT_NAME":"COSMOS 2251 DEB","OBJECT_ID":"1993-036ACD","EPOCH":"2026-04-05T06:10:51.194208","MEAN_MOTION":15.50133425,"ECCENTRICITY":0.00143168,"INCLINATION":74.0172,"RA_OF_ASC_NODE":99.1503,"ARG_OF_PERICENTER":261.8784,"MEAN_ANOMALY":98.0806,"EPHEMERIS_TYPE":0,"CLASSIFICATION_TYPE":"U","NORAD_CAT_ID":34859,"ELEMENT_SET_NO":999,"REV_AT_EPOCH":90091,"BSTAR":0.0064998313,"MEAN_MOTION_DOT":0.0038592,"MEAN_MOTION_DDOT":0},{"OBJECT_NAME":"COSMOS 2251 DEB","OBJECT_ID":"1993-036ACF","EPOCH":"2026-04-05T07:25:14.479104","MEAN_MOTION":15.17012456,"ECCENTRICITY":0.00054978,"INCLINATION":74.009,"RA_OF_ASC_NODE":176.3101,"ARG_OF_PERICENTER":299.7892,"MEAN_ANOMALY":123.6742,"EPHEMERIS_TYPE":0,"CLASSIFICATION_TYPE":"U","NORAD_CAT_ID":34861,"ELEMENT_SET_NO":999,"REV_AT_EPOCH":89806,"BSTAR":0.0041872341,"MEAN_MOTION_DOT":0.00083757,"MEAN_MOTION_DDOT":0},{"OBJECT_NAME":"COSMOS 2251 DEB","OBJECT_ID":"1993-036ACM","EPOCH":"2026-04-05T02:36:29.004192","MEAN_MOTION":14.36995421,"ECCENTRICITY":0.00517418,"INCLINATION":74.039,"RA_OF_ASC_NODE":225.4322,"ARG_OF_PERICENTER":224.3612,"MEAN_ANOMALY":313.5125,"EPHEMERIS_TYPE":0,"CLASSIFICATION_TYPE":"U","NORAD_CAT_ID":34874,"ELEMENT_SET_NO":999,"REV_AT_EPOCH":88672,"BSTAR":0.0011416978,"MEAN_MOTION_DOT":3.412e-5,"MEAN_MOTION_DDOT":0},{"OBJECT_NAME":"COSMOS 2251 DEB","OBJECT_ID":"1993-036ACN","EPOCH":"2026-04-05T06:48:43.378560","MEAN_MOTION":14.49364332,"ECCENTRICITY":0.00146617,"INCLINATION":74.0433,"RA_OF_ASC_NODE":305.4034,"ARG_OF_PERICENTER":41.0893,"MEAN_ANOMALY":76.9728,"EPHEMERIS_TYPE":0,"CLASSIFICATION_TYPE":"U","NORAD_CAT_ID":34875,"ELEMENT_SET_NO":999,"REV_AT_EPOCH":89400,"BSTAR":0.00048732076,"MEAN_MOTION_DOT":1.838e-5,"MEAN_MOTION_DDOT":0},{"OBJECT_NAME":"COSMOS 2251 DEB","OBJECT_ID":"1993-036ACR","EPOCH":"2026-03-31T16:43:20.057952","MEAN_MOTION":13.44336118,"ECCENTRICITY":0.04353237,"INCLINATION":73.9646,"RA_OF_ASC_NODE":234.4229,"ARG_OF_PERICENTER":197.2068,"MEAN_ANOMALY":183.8809,"EPHEMERIS_TYPE":0,"CLASSIFICATION_TYPE":"U","NORAD_CAT_ID":34878,"ELEMENT_SET_NO":999,"REV_AT_EPOCH":82737,"BSTAR":0.0013724839,"MEAN_MOTION_DOT":1.391e-5,"MEAN_MOTION_DDOT":0},{"OBJECT_NAME":"COSMOS 2251 DEB","OBJECT_ID":"1993-036ACV","EPOCH":"2026-04-05T04:28:48.420192","MEAN_MOTION":14.61837905,"ECCENTRICITY":0.00816469,"INCLINATION":74.0487,"RA_OF_ASC_NODE":8.635,"ARG_OF_PERICENTER":107.6549,"MEAN_ANOMALY":253.3554,"EPHEMERIS_TYPE":0,"CLASSIFICATION_TYPE":"U","NORAD_CAT_ID":34882,"ELEMENT_SET_NO":999,"REV_AT_EPOCH":90182,"BSTAR":0.00024251182,"MEAN_MOTION_DOT":1.239e-5,"MEAN_MOTION_DDOT":0},{"OBJECT_NAME":"COSMOS 2251 DEB","OBJECT_ID":"1993-036ACW","EPOCH":"2026-04-05T06:53:20.093568","MEAN_MOTION":14.55038909,"ECCENTRICITY":0.00906342,"INCLINATION":74.1984,"RA_OF_ASC_NODE":210.4623,"ARG_OF_PERICENTER":358.7567,"MEAN_ANOMALY":1.3356,"EPHEMERIS_TYPE":0,"CLASSIFICATION_TYPE":"U","NORAD_CAT_ID":34883,"ELEMENT_SET_NO":999,"REV_AT_EPOCH":88089,"BSTAR":0.0029966532,"MEAN_MOTION_DOT":0.00013646,"MEAN_MOTION_DDOT":0},{"OBJECT_NAME":"COSMOS 2251 DEB","OBJECT_ID":"1993-036ACX","EPOCH":"2026-04-05T05:59:44.727936","MEAN_MOTION":14.97492363,"ECCENTRICITY":0.00070547,"INCLINATION":74.0141,"RA_OF_ASC_NODE":188.0239,"ARG_OF_PERICENTER":274.7562,"MEAN_ANOMALY":116.3305,"EPHEMERIS_TYPE":0,"CLASSIFICATION_TYPE":"U","NORAD_CAT_ID":34884,"ELEMENT_SET_NO":999,"REV_AT_EPOCH":89500,"BSTAR":0.003452576,"MEAN_MOTION_DOT":0.00040464,"MEAN_MOTION_DDOT":0},{"OBJECT_NAME":"COSMOS 2251 DEB","OBJECT_ID":"1993-036ACY","EPOCH":"2026-04-05T02:44:53.455776","MEAN_MOTION":14.52252908,"ECCENTRICITY":0.00134127,"INCLINATION":74.0325,"RA_OF_ASC_NODE":329.4146,"ARG_OF_PERICENTER":29.5337,"MEAN_ANOMALY":131.962,"EPHEMERIS_TYPE":0,"CLASSIFICATION_TYPE":"U","NORAD_CAT_ID":34885,"ELEMENT_SET_NO":999,"REV_AT_EPOCH":89124,"BSTAR":0.00076864375,"MEAN_MOTION_DOT":3.099e-5,"MEAN_MOTION_DDOT":0},{"OBJECT_NAME":"COSMOS 2251 DEB","OBJECT_ID":"1993-036ACZ","EPOCH":"2026-04-03T06:30:07.379136","MEAN_MOTION":15.78328411,"ECCENTRICITY":0.0012181,"INCLINATION":73.9393,"RA_OF_ASC_NODE":294.0393,"ARG_OF_PERICENTER":112.2217,"MEAN_ANOMALY":248.0304,"EPHEMERIS_TYPE":0,"CLASSIFICATION_TYPE":"U","NORAD_CAT_ID":34886,"ELEMENT_SET_NO":999,"REV_AT_EPOCH":64729,"BSTAR":0.0041657,"MEAN_MOTION_DOT":0.00787204,"MEAN_MOTION_DDOT":0},{"OBJECT_NAME":"COSMOS 2251 DEB","OBJECT_ID":"1993-036ADD","EPOCH":"2026-04-05T05:26:56.823648","MEAN_MOTION":14.37864717,"ECCENTRICITY":0.00401543,"INCLINATION":74.0587,"RA_OF_ASC_NODE":175.0336,"ARG_OF_PERICENTER":167.903,"MEAN_ANOMALY":223.7601,"EPHEMERIS_TYPE":0,"CLASSIFICATION_TYPE":"U","NORAD_CAT_ID":34908,"ELEMENT_SET_NO":999,"REV_AT_EPOCH":88910,"BSTAR":0.00069163047,"MEAN_MOTION_DOT":2.08e-5,"MEAN_MOTION_DDOT":0},{"OBJECT_NAME":"COSMOS 2251 DEB","OBJECT_ID":"1993-036ADE","EPOCH":"2026-04-05T01:17:23.451360","MEAN_MOTION":14.78717731,"ECCENTRICITY":0.00838911,"INCLINATION":74.0137,"RA_OF_ASC_NODE":213.632,"ARG_OF_PERICENTER":319.1456,"MEAN_ANOMALY":40.3449,"EPHEMERIS_TYPE":0,"CLASSIFICATION_TYPE":"U","NORAD_CAT_ID":34909,"ELEMENT_SET_NO":999,"REV_AT_EPOCH":68526,"BSTAR":0.0005485366,"MEAN_MOTION_DOT":4.236e-5,"MEAN_MOTION_DDOT":0},{"OBJECT_NAME":"COSMOS 2251 DEB","OBJECT_ID":"1993-036ADF","EPOCH":"2026-04-03T07:26:08.883456","MEAN_MOTION":13.3788178,"ECCENTRICITY":0.0466715,"INCLINATION":73.8726,"RA_OF_ASC_NODE":285.3376,"ARG_OF_PERICENTER":25.131,"MEAN_ANOMALY":151.6583,"EPHEMERIS_TYPE":0,"CLASSIFICATION_TYPE":"U","NORAD_CAT_ID":34910,"ELEMENT_SET_NO":999,"REV_AT_EPOCH":83016,"BSTAR":0.00086563,"MEAN_MOTION_DOT":8.36e-6,"MEAN_MOTION_DDOT":0},{"OBJECT_NAME":"COSMOS 2251 DEB","OBJECT_ID":"1993-036ADG","EPOCH":"2026-04-04T20:42:27.704160","MEAN_MOTION":14.59553921,"ECCENTRICITY":0.00827991,"INCLINATION":74.0427,"RA_OF_ASC_NODE":29.1103,"ARG_OF_PERICENTER":127.2715,"MEAN_ANOMALY":291.0524,"EPHEMERIS_TYPE":0,"CLASSIFICATION_TYPE":"U","NORAD_CAT_ID":34911,"ELEMENT_SET_NO":999,"REV_AT_EPOCH":90237,"BSTAR":0.00017523184,"MEAN_MOTION_DOT":8.42e-6,"MEAN_MOTION_DDOT":0},{"OBJECT_NAME":"COSMOS 2251 DEB","OBJECT_ID":"1993-036ADJ","EPOCH":"2026-04-05T04:56:00.950784","MEAN_MOTION":14.34674233,"ECCENTRICITY":0.00207566,"INCLINATION":74.0266,"RA_OF_ASC_NODE":74.5529,"ARG_OF_PERICENTER":163.3035,"MEAN_ANOMALY":213.3307,"EPHEMERIS_TYPE":0,"CLASSIFICATION_TYPE":"U","NORAD_CAT_ID":34913,"ELEMENT_SET_NO":999,"REV_AT_EPOCH":66815,"BSTAR":5.6406796e-5,"MEAN_MOTION_DOT":1.34e-6,"MEAN_MOTION_DDOT":0},{"OBJECT_NAME":"COSMOS 2251 DEB","OBJECT_ID":"1993-036ADP","EPOCH":"2026-04-02T06:56:29.179104","MEAN_MOTION":14.6308315,"ECCENTRICITY":0.00259902,"INCLINATION":74.0688,"RA_OF_ASC_NODE":102.3781,"ARG_OF_PERICENTER":35.5761,"MEAN_ANOMALY":339.5109,"EPHEMERIS_TYPE":0,"CLASSIFICATION_TYPE":"U","NORAD_CAT_ID":34918,"ELEMENT_SET_NO":999,"REV_AT_EPOCH":66952,"BSTAR":0.0018164754,"MEAN_MOTION_DOT":9.357e-5,"MEAN_MOTION_DDOT":0}]
