COSMOS 2251 DEB         
1 34859U 93036ACD 26095.25753697  .00385920  00000+0  64998-2 0  9990
2 34859  74.0172  99.1503 0014316 261.8784  98.0806 15.50133425900919
COSMOS 2251 DEB         
1 34861U 93036ACF 26095.30919536  .00083757  00000+0  41872-2 0  9994
2 34861  74.0090 176.3101 0005497 299.7892 123.6742 15.17012456898062
COSMOS 2251 DEB         
1 34874U 93036ACM 26095.10866903  .00003412  00000+0  11417-2 0  9997
2 34874  74.0390 225.4322 0051741 224.3612 313.5125 14.36995421886724
COSMOS 2251 DEB         
1 34875U 93036ACN 26095.28383540  .00001838  00000+0  48732-3 0  9999
2 34875  74.0433 305.4034 0014661  41.0893  76.9728 14.49364332894001
COSMOS 2251 DEB         
1 34878U 93036ACR 26090.69675993  .00001391  00000+0  13725-2 0  9995
2 34878  73.9646 234.4229 0435323 197.2068 183.8809 13.44336118827374
COSMOS 2251 DEB         
1 34882U 93036ACV 26095.18667153  .00001239  00000+0  24251-3 0  9996
2 34882  74.0487   8.6350 0081646 107.6549 253.3554 14.61837905901827
COSMOS 2251 DEB         
1 34883U 93036ACW 26095.28703812  .00013646  00000+0  29967-2 0  9994
2 34883  74.1984 210.4623 0090634 358.7567   1.3356 14.55038909880897
COSMOS 2251 DEB         
1 34884U 93036ACX 26095.24982324  .00040464  00000+0  34526-2 0  9993
2 34884  74.0141 188.0239 0007054 274.7562 116.3305 14.97492363895005
COSMOS 2251 DEB         
1 34885U 93036ACY 26095.11450759  .00003099  00000+0  76864-3 0  9997
2 34885  74.0325 329.4146 0013412  29.5337 131.9620 14.52252908891244
COSMOS 2251 DEB         
1 34886U 93036ACZ 26093.27091874  .00787204  00000+0  41657-2 0  9990
2 34886  73.9393 294.0393 0012181 112.2217 248.0304 15.78328411647293
COSMOS 2251 DEB         
1 34908U 93036ADD 26095.22704657  .00002080  00000+0  69163-3 0  9997
2 34908  74.0587 175.0336 0040154 167.9030 223.7601 14.37864717889107
COSMOS 2251 DEB         
1 34909U 93036ADE 26095.05374365  .00004236  00000+0  54854-3 0  9994
2 34909  74.0137 213.6320 0083891 319.1456  40.3449 14.78717731685261
COSMOS 2251 DEB         
1 34910U 93036ADF 26093.30982504  .00000836  00000+0  86563-3 0  9996
2 34910  73.8726 285.3376 0466715  25.1310 151.6583 13.37881780830160
COSMOS 2251 DEB         
1 34911U 93036ADG 26094.86282065  .00000842  00000+0  17523-3 0  9991
2 34911  74.0427  29.1103 0082799 127.2715 291.0524 14.59553921902378
COSMOS 2251 DEB         
1 34913U 93036ADJ 26095.20556656  .00000134  00000+0  56407-4 0  9991
2 34913  74.0266  74.5529 0020756 163.3035 213.3307 14.34674233668152
COSMOS 2251 DEB         
1 34918U 93036ADP 26092.28922661  .00009357  00000+0  18165-2 0  9997
2 34918  74.0688 102.3781 0025990  35.5761 339.5109 14.63083150669523
